{
    "links": {
        "self": "http://www.neowsapp.com/rest/v1/neo/3838919?api_key=iIulBulltgU6a56xZRHN4H3l9WmuAYTsLGpBGhQ2"
    },
    "id": "3838919",
    "neo_reference_id": "3838919",
    "name": "(2019 ES1)",
    "designation": "2019 ES1",
    "nasa_jpl_url": "http://ssd.jpl.nasa.gov/sbdb.cgi?sstr=3838919",
    "absolute_magnitude_h": 23.7,
    "estimated_diameter": {
        "kilometers": {
            "estimated_diameter_min": 0.0483676488,
            "estimated_diameter_max": 0.1081533507
        },
        "meters": {
            "estimated_diameter_min": 48.3676488219,
            "estimated_diameter_max": 108.1533506775
        },
        "miles": {
            "estimated_diameter_min": 0.0300542543,
            "estimated_diameter_max": 0.0672033557
        },
        "feet": {
            "estimated_diameter_min": 158.6865169607,
            "estimated_diameter_max": 354.8338390368
        }
    },
    "is_potentially_hazardous_asteroid": false,
    "close_approach_data": [
        {
            "close_approach_date": "1960-12-24",
            "close_approach_date_full": "1960-Dec-24 13:09",
            "epoch_date_close_approach": -284640660000,
            "relative_velocity": {
                "kilometers_per_second": "12.0141450481",
                "kilometers_per_hour": "43250.9221731521",
                "miles_per_hour": "26874.44105809"
            },
            "miss_distance": {
                "astronomical": "0.2076902258",
                "lunar": "80.7914978362",
                "kilometers": "31070015.399499046",
                "miles": "19306012.3375609948"
            },
            "orbiting_body": "Earth"
        },
        {
            "close_approach_date": "2018-10-18",
            "close_approach_date_full": "2018-Oct-18 01:07",
            "epoch_date_close_approach": 1539824820000,
            "relative_velocity": {
                "kilometers_per_second": "15.1686540768",
                "kilometers_per_hour": "54607.1546765948",
                "miles_per_hour": "33930.7623044653"
            },
            "miss_distance": {
                "astronomical": "0.0758065956",
                "lunar": "29.4887656884",
                "kilometers": "11340505.233711372",
                "miles": "7046663.1941140536"
            },
            "orbiting_body": "Mars"
        },
        {
            "close_approach_date": "2019-02-26",
            "close_approach_date_full": "2019-Feb-26 03:44",
            "epoch_date_close_approach": 1551152640000,
            "relative_velocity": {
                "kilometers_per_second": "13.086065639",
                "kilometers_per_hour": "47109.8363005271",
                "miles_per_hour": "29272.2202279581"
            },
            "miss_distance": {
                "astronomical": "0.0357743444",
                "lunar": "13.9162199716",
                "kilometers": "5351765.722886428",
                "miles": "3325433.0178235864"
            },
            "orbiting_body": "Earth"
        },
        {
            "close_approach_date": "2024-03-14",
            "close_approach_date_full": "2024-Mar-14 08:29",
            "epoch_date_close_approach": 1710404940000,
            "relative_velocity": {
                "kilometers_per_second": "20.0158264225",
                "kilometers_per_hour": "72056.9751209611",
                "miles_per_hour": "44773.4021244661"
            },
            "miss_distance": {
                "astronomical": "0.1975196774",
                "lunar": "76.8351545086",
                "kilometers": "29548523.022127138",
                "miles": "18360600.8135769844"
            },
            "orbiting_body": "Earth"
        },
        {
            "close_approach_date": "2029-03-26",
            "close_approach_date_full": "2029-Mar-26 23:00",
            "epoch_date_close_approach": 1869260400000,
            "relative_velocity": {
                "kilometers_per_second": "26.8707101926",
                "kilometers_per_hour": "96734.5566934511",
                "miles_per_hour": "60107.0916298835"
            },
            "miss_distance": {
                "astronomical": "0.4292803561",
                "lunar": "166.9900585229",
                "kilometers": "64219426.905401507",
                "miles": "39904101.5012425166"
            },
            "orbiting_body": "Earth"
        }
    ],
    "orbital_data": {
        "orbit_id": "10",
        "orbit_determination_date": "2019-04-12 07:29:08",
        "first_observation_date": "2019-03-06",
        "last_observation_date": "2019-04-11",
        "data_arc_in_days": 36,
        "observations_used": 58,
        "orbit_uncertainty": "7",
        "minimum_orbit_intersection": ".00539729",
        "jupiter_tisserand_invariant": "3.783",
        "epoch_osculation": "2459000.5",
        "eccentricity": ".5763766847128428",
        "semi_major_axis": "1.851551236860998",
        "inclination": "3.756843844962254",
        "ascending_node_longitude": "345.0308590200157",
        "orbital_period": "920.2419533771944",
        "perihelion_distance": ".7843602733830924",
        "perihelion_argument": "110.6370895066368",
        "aphelion_distance": "2.918742200338903",
        "perihelion_time": "2459419.437433221685",
        "mean_anomaly": "196.1110625240223",
        "mean_motion": ".3912014646570248",
        "equinox": "J2000",
        "orbit_class": {
            "orbit_class_type": "APO",
            "orbit_class_description": "Near-Earth asteroid orbits which cross the Earth’s orbit similar to that of 1862 Apollo",
            "orbit_class_range": "a (semi-major axis) > 1.0 AU; q (perihelion) < 1.017 AU"
        }
    },
    "is_sentry_object": false
}